OBJECT_NAME,OBJECT_ID,EPOCH,MEAN_MOTION,ECCENTRICITY,INCLINATION,RA_OF_ASC_NODE,ARG_OF_PERICENTER,MEAN_ANOMALY,EPHEMERIS_TYPE,CLASSIFICATION_TYPE,NORAD_CAT_ID,ELEMENT_SET_NO,REV_AT_EPOCH,BSTAR,MEAN_MOTION_DOT,MEAN_MOTION_DDOT
DONGPO 10,2022-167H,2026-05-16T22:59:52.413792,15.33777834,.00044486,97.6919,305.7964,210.0060,150.0928,0,U,54689,999,19057,.27160789E-3,.8791E-4,0
JILIN-1 GAOFEN 03D48,2022-167P,2026-05-16T23:18:32.433408,15.34513026,.00057348,97.6852,305.1783,217.2804,142.8041,0,U,54695,999,19060,.27273923E-3,.9039E-4,0
STAR VIBE,2023-001A,2026-05-16T21:28:32.860128,15.41710673,.00050597,97.3189,201.2509,210.3009,149.7947,0,U,55009,999,18740,.2912802E-3,.12221E-3,0
BRO-8,2023-001C,2026-05-16T21:23:24.939168,15.47085996,.00053832,97.3237,201.6691,217.2326,142.8551,0,U,55011,999,18736,.55513505E-3,.28093E-3,0
CONNECTA T1.2,2023-001D,2026-05-16T21:56:44.240352,15.48341270,.00063553,97.3294,207.1033,191.7856,168.3247,0,U,55012,999,18770,.50174314E-3,.26512E-3,0
BIRKELAND,2023-001G,2026-05-16T22:51:59.620032,15.39491948,.00061961,97.3361,204.8543,202.6153,157.4820,0,U,55015,999,18754,.19381622E-3,.7525E-4,0
ION SCV-008,2023-001AU,2026-05-16T22:37:27.943392,15.28160956,.00164082,97.5698,232.7513,120.9645,239.3209,0,U,55051,999,18656,.19130768E-3,.5193E-4,0
ION SCV-007,2023-001BD,2026-05-16T21:51:28.031040,14.77522243,.00137627,97.9023,200.5437,78.8055,281.4702,0,U,55060,999,18163,.45410397E-4,.273E-5,0
HUYGENS,2023-001CN,2026-05-16T22:52:06.424032,15.39491686,.0009629,97.3266,204.1245,185.1623,174.9525,0,U,55093,999,18756,.20181301E-3,.7847E-4,0
SHARJAHSAT-1,2023-001CZ,2026-05-16T21:35:18.300768,15.47857971,.00055412,97.3192,205.2584,199.1775,160.9268,0,U,55104,999,18765,.32482253E-3,.16822E-3,0
HORUS 1,2023-025A,2026-05-16T22:52:04.365984,15.23582221,.0002248,97.3472,212.2023,108.4308,251.7174,0,U,55690,999,17929,.19435101E-3,.458E-4,0
HORUS 2,2023-032A,2026-05-16T22:09:11.424960,15.23424567,.00028699,97.3543,212.9481,138.6236,221.5219,0,U,55844,999,17672,.1858986E-3,.4357E-4,0
GLOBAL-19,2023-041B,2026-05-16T17:46:30.432864,15.38348651,.00049153,42.0032,25.3550,130.0650,230.0621,0,U,55982,999,17708,.30867529E-3,.1169E-3,0
BRO-9,2023-054H,2026-05-16T22:51:12.144096,15.82710468,.00077764,97.2994,53.1258,121.6305,238.5724,0,U,56185,999,17412,.93680964E-3,.20056E-2,0
ION SCV-010,2023-054Q,2026-05-16T22:45:24.280416,15.25902886,.00116767,97.3820,26.8484,322.0361,38.0054,0,U,56192,999,17143,.13720387E-3,.345E-4,0
TELEOS-2,2023-057C,2026-05-16T23:07:04.628928,14.96414864,.00006485,9.9884,71.5158,264.7043,95.3096,0,U,56310,999,16811,.281569E-3,.3969E-4,0
SNIPE 4,2023-072B,2026-05-16T20:44:29.452128,15.41050598,.00070848,97.5275,341.9043,83.8851,276.3203,0,U,56744,999,16528,.46011552E-3,.18955E-3,0
SNIPE 2,2023-072C,2026-05-16T22:18:58.948416,15.45193542,.00063631,97.5272,344.8073,107.8445,252.3498,0,U,56745,999,16541,.45133424E-3,.21372E-3,0
2023-072G,2023-072G,2026-05-16T22:31:43.064832,15.48740805,.00056407,97.4926,343.5891,99.7510,260.4377,0,U,56749,999,16562,.41801095E-3,.22364E-3,0
GEISAT PRECURSOR,2023-084C,2026-05-16T21:59:47.079168,15.34189840,.00072658,97.6182,276.8597,98.1898,262.0168,0,U,56934,999,16273,.19296751E-3,.6306E-4,0
BLACKJACK ACES-3,2023-084U,2026-05-16T20:48:07.602624,15.18320252,.00042305,97.6168,271.8329,107.3222,252.8475,0,U,56950,999,16241,.16217507E-3,.3258E-4,0
BLACKJACK ACES-2,2023-084Z,2026-05-16T19:22:40.372608,15.18320904,.00026498,97.6165,271.8582,94.4706,265.6830,0,U,56955,999,16241,.23517495E-3,.4756E-4,0
BLACKJACK ACES-1,2023-084AA,2026-05-16T22:14:43.430784,15.18169818,.00015259,97.6156,271.7567,94.7451,265.3956,0,U,56956,999,11215,.26256315E-3,.5295E-4,0
ION SCV-011,2023-084AB,2026-05-16T18:39:48.546144,15.28514676,.00081459,98.1375,321.1559,139.7044,220.4798,0,U,56957,999,16101,.15735015E-3,.4281E-4,0
GHOST-3,2023-084AC,2026-05-16T20:43:17.513760,15.46801329,.00068955,97.6179,283.7900,56.5768,303.6140,0,U,56958,999,16317,.28180226E-3,.14052E-3,0
TOMORROW-R2,2023-084AG,2026-05-16T21:40:41.270880,15.89429738,.00018975,97.5923,297.0859,278.1724,81.9332,0,U,56962,999,16406,.58056089E-3,.167083E-2,.12262907E-4
AFR-1,2023-084AJ,2026-05-16T22:30:40.081824,15.28264950,.00120606,97.6231,272.8922,90.1320,270.1301,0,U,56964,999,16245,.12799729E-3,.3452E-4,0
METEOR-M2 3,2023-091A,2026-05-16T23:20:01.929984,14.24043826,.0002782,98.6106,192.5856,256.5077,103.5792,0,U,57166,999,15007,.10458941E-4,-.19E-6,0
UMKA 1 (RS40S),2023-091G,2026-05-16T21:39:32.299488,15.20432070,.00118181,97.5069,195.7255,222.7515,137.2802,0,U,57172,999,15925,.22083181E-3,.4754E-4,0
2023-091H,2023-091H,2026-05-16T22:49:25.684608,15.27912510,.00092342,97.5067,199.9046,215.0538,145.0094,0,U,57173,999,15953,.3243776E-3,.8773E-4,0
