DONGPO 10               
1 54689U 22167H   26136.95824553  .00008791  00000+0  27161-3 0  9993
2 54689  97.6919 305.7964 0004448 210.0060 150.0928 15.33777834190573
JILIN-1 GAOFEN 03D48    
1 54695U 22167P   26136.97120872  .00009039  00000+0  27274-3 0  9996
2 54695  97.6852 305.1783 0005734 217.2804 142.8041 15.34513026190604
STAR VIBE               
1 55009U 23001A   26136.89482477  .00012221  00000+0  29128-3 0  9994
2 55009  97.3189 201.2509 0005059 210.3009 149.7947 15.41710673187407
BRO-8                   
1 55011U 23001C   26136.89126087  .00028093  00000+0  55514-3 0  9991
2 55011  97.3237 201.6691 0005383 217.2326 142.8551 15.47085996187367
CONNECTA T1.2           
1 55012U 23001D   26136.91440093  .00026512  00000+0  50174-3 0  9992
2 55012  97.3294 207.1033 0006355 191.7856 168.3247 15.48341270187700
BIRKELAND               
1 55015U 23001G   26136.95277338  .00007525  00000+0  19382-3 0  9998
2 55015  97.3361 204.8543 0006196 202.6153 157.4820 15.39491948187549
ION SCV-008             
1 55051U 23001AU  26136.94268453  .00005193  00000+0  19131-3 0  9996
2 55051  97.5698 232.7513 0016408 120.9645 239.3209 15.28160956186568
ION SCV-007             
1 55060U 23001BD  26136.91074110  .00000273  00000+0  45410-4 0  9992
2 55060  97.9023 200.5437 0013762  78.8055 281.4702 14.77522243181631
HUYGENS                 
1 55093U 23001CN  26136.95285213  .00007847  00000+0  20181-3 0  9991
2 55093  97.3266 204.1245 0009629 185.1623 174.9525 15.39491686187569
SHARJAHSAT-1            
1 55104U 23001CZ  26136.89951737  .00016822  00000+0  32482-3 0  9998
2 55104  97.3192 205.2584 0005541 199.1775 160.9268 15.47857971187651
HORUS 1                 
1 55690U 23025A   26136.95282831  .00004580  00000+0  19435-3 0  9994
2 55690  97.3472 212.2023 0002248 108.4308 251.7174 15.23582221179297
HORUS 2                 
1 55844U 23032A   26136.92304890  .00004357  00000+0  18590-3 0  9993
2 55844  97.3543 212.9481 0002869 138.6236 221.5219 15.23424567176724
GLOBAL-19               
1 55982U 23041B   26136.74063001  .00011690  00000+0  30868-3 0  9992
2 55982  42.0032  25.3550 0004915 130.0650 230.0621 15.38348651177087
BRO-9                   
1 56185U 23054H   26136.95222389  .00200560  00000+0  93681-3 0  9999
2 56185  97.2994  53.1258 0007776 121.6305 238.5724 15.82710468174124
ION SCV-010             
1 56192U 23054Q   26136.94819769  .00003450  00000+0  13720-3 0  9995
2 56192  97.3820  26.8484 0011676 322.0361  38.0054 15.25902886171436
TELEOS-2                
1 56310U 23057C   26136.96324802  .00003969  00000+0  28157-3 0  9996
2 56310   9.9884  71.5158 0000648 264.7043  95.3096 14.96414864168112
SNIPE 4                 
1 56744U 23072B   26136.86422977  .00018955  00000+0  46012-3 0  9996
2 56744  97.5275 341.9043 0007084  83.8851 276.3203 15.41050598165282
SNIPE 2                 
1 56745U 23072C   26136.92984894  .00021372  00000+0  45133-3 0  9995
2 56745  97.5272 344.8073 0006363 107.8445 252.3498 15.45193542165416
2023-072G               
1 56749U 23072G   26136.93869288  .00022364  00000+0  41801-3 0  9999
2 56749  97.4926 343.5891 0005640  99.7510 260.4377 15.48740805165620
GEISAT PRECURSOR        
1 56934U 23084C   26136.91651712  .00006306  00000+0  19297-3 0  9999
2 56934  97.6182 276.8597 0007265  98.1898 262.0168 15.34189840162736
BLACKJACK ACES-3        
1 56950U 23084U   26136.86675466  .00003258  00000+0  16218-3 0  9996
2 56950  97.6168 271.8329 0004230 107.3222 252.8475 15.18320252162418
BLACKJACK ACES-2        
1 56955U 23084Z   26136.80741172  .00004756  00000+0  23517-3 0  9997
2 56955  97.6165 271.8582 0002649  94.4706 265.6830 15.18320904162417
BLACKJACK ACES-1        
1 56956U 23084AA  26136.92689156  .00005295  00000+0  26256-3 0  9996
2 56956  97.6156 271.7567 0001525  94.7451 265.3956 15.18169818112159
ION SCV-011             
1 56957U 23084AB  26136.77764521  .00004281  00000+0  15735-3 0  9994
2 56957  98.1375 321.1559 0008145 139.7044 220.4798 15.28514676161015
GHOST-3                 
1 56958U 23084AC  26136.86339715  .00014052  00000+0  28180-3 0  9993
2 56958  97.6179 283.7900 0006895  56.5768 303.6140 15.46801329163172
TOMORROW-R2             
1 56962U 23084AG  26136.90325545  .00167083  12263-4  58056-3 0  9996
2 56962  97.5923 297.0859 0001897 278.1724  81.9332 15.89429738164060
AFR-1                   
1 56964U 23084AJ  26136.93796391  .00003452  00000+0  12800-3 0  9999
2 56964  97.6231 272.8922 0012060  90.1320 270.1301 15.28264950162450
METEOR-M2 3             
1 57166U 23091A   26136.97224456 -.00000019  00000+0  10459-4 0  9990
2 57166  98.6106 192.5856 0002782 256.5077 103.5792 14.24043826150078
UMKA 1 (RS40S)          
1 57172U 23091G   26136.90245717  .00004754  00000+0  22083-3 0  9997
2 57172  97.5069 195.7255 0011818 222.7515 137.2802 15.20432070159256
2023-091H               
1 57173U 23091H   26136.95099172  .00008773  00000+0  32438-3 0  9995
2 57173  97.5067 199.9046 0009234 215.0538 145.0094 15.27912510159538
